{"type":"FeatureCollection","features":[{"type":"Feature","properties":{"name":"Nepal"},"geometry":{"type":"Polygon","coordinates":[[[88.118218,27.860885],[88.134858,27.723167],[88.039773,27.442357],[88.015795,27.364222],[87.970837,27.119224],[88.055948,27.018042],[88.159042,26.802551],[88.079822,26.517556],[87.928979,26.396426],[87.852084,26.46066],[87.727544,26.403764],[87.552051,26.386711],[87.314029,26.343768],[87.135022,26.394204],[87.041333,26.580187],[86.865684,26.472442],[86.724091,26.421954],[86.510616,26.520139],[86.316002,26.580963],[86.195855,26.582668],[86.122061,26.60029],[85.866366,26.579929],[85.800065,26.600703],[85.687772,26.811853],[85.385878,26.788444],[85.165685,26.786273],[85.018045,26.874433],[84.901567,26.967192],[84.760697,26.999025],[84.657654,27.203405],[84.239023,27.431143],[84.121563,27.494964],[83.923022,27.449954],[83.87765,27.369907],[83.663399,27.43228],[83.370962,27.410214],[83.249419,27.348099],[82.901275,27.480365],[82.673891,27.696458],[82.107422,27.863572],[81.906091,27.863107],[81.665433,27.9708],[81.454025,28.086607],[81.351447,28.15681],[81.276775,28.153787],[81.146344,28.372249],[80.941188,28.432684],[80.81701,28.502551],[80.648338,28.619753],[80.555837,28.678948],[80.468814,28.571849],[80.291047,28.689671],[80.181183,28.74729],[80.030288,28.87767],[80.107906,28.994588],[80.220664,29.126079],[80.278748,29.268085],[80.220974,29.400119],[80.282055,29.4843],[80.323603,29.54166],[80.377553,29.652946],[80.527312,29.862416],[80.680171,29.992072],[80.850393,30.181931],[80.996017,30.196969],[81.084849,30.026179],[81.239516,30.058787],[81.266956,30.125087],[81.361834,30.204772],[81.382143,30.331276],[81.509371,30.328382],[81.585077,30.408119],[81.844389,30.371171],[81.988463,30.329778],[82.084994,30.230817],[82.135224,30.089741],[82.296506,30.036824],[82.409781,29.994604],[82.635865,29.829033],[82.690952,29.780741],[82.836576,29.659793],[82.964321,29.665891],[83.088447,29.604421],[83.19087,29.606902],[83.26332,29.527088],[83.357785,29.442752],[83.417781,29.340898],[83.514571,29.20181],[83.639266,29.154759],[83.745358,29.23447],[83.914392,29.289402],[84.000898,29.27253],[84.105336,29.219923],[84.13226,29.143804],[84.231427,29.025981],[84.393071,28.82434],[84.531977,28.712693],[84.682975,28.650759],[84.823949,28.540533],[84.954948,28.574303],[85.054942,28.638692],[85.140363,28.510922],[85.08569,28.381008],[85.173591,28.30432],[85.325727,28.277397],[85.44665,28.29215],[85.611807,28.251145],[85.692939,28.335222],[85.848279,28.158928],[85.898302,28.036016],[85.98026,27.885172],[86.112242,27.937262],[86.089401,27.994881],[86.081546,28.0517],[86.172238,28.071828],[86.218385,27.994726],[86.345613,27.940931],[86.496921,27.937882],[86.540743,28.062164],[86.627146,28.083481],[86.732204,28.034957],[86.914725,27.945117],[87.116522,27.844581],[87.385343,27.849412],[87.551327,27.831894],[87.659951,27.819879],[87.825884,27.906566],[88.018121,27.892149],[88.118218,27.860885]]]}}]}